start=new Date('2023-02-21T00:00:00.000Z').valueOf();
sats=[{"MEAN_MOTION":"15.06401226","FILE":"3816823","REF_FRAME":"TEME","BSTAR":"0.00129770000000","MEAN_ANOMALY":"262.8822","OBJECT_ID":"2021-038BC","OBJECT_NAME":"STARLINK-2561","COUNTRY_CODE":"US","SITE":"AFETR","PERIOD":"95.592","MEAN_MOTION_DOT":"0.00019101","APOAPSIS":"547.872","CLASSIFICATION_TYPE":"U","MEAN_MOTION_DDOT":"0.0000000000000","SEMIMAJOR_AXIS":"6925.345","OBJECT_TYPE":"PAYLOAD","GP_ID":"226182258","NORAD_CAT_ID":"48403","MEAN_ELEMENT_THEORY":"SGP4","ELEMENT_SET_NO":"999","EPHEMERIS_TYPE":"0","REV_AT_EPOCH":"10017","EPOCH":"2023-02-20T21:36:08.159616","ECCENTRICITY":"0.00009560","DECAY_DATE":null,"ARG_OF_PERICENTER":"97.2276","TLE_LINE2":"2 48403  53.0543 297.1223 0000956  97.2276 262.8822 15.06401226100176","RA_OF_ASC_NODE":"297.1223","PERIAPSIS":"546.548","INCLINATION":"53.0543","RCS_SIZE":"LARGE","TLE_LINE1":"1 48403U 21038BC  23051.90009444  .00019101  00000-0  12977-2 0  9994","LAUNCH_DATE":"2021-05-04","CENTER_NAME":"EARTH","TIME_SYSTEM":"UTC"},{"MEAN_MOTION":"15.06374251","REF_FRAME":"TEME","FILE":"3816825","OBJECT_ID":"2021-038BD","MEAN_ANOMALY":"276.1460","BSTAR":"0.00101660000000","OBJECT_NAME":"STARLINK-2593","PERIOD":"95.594","MEAN_MOTION_DOT":"0.00014883","COUNTRY_CODE":"US","SITE":"AFETR","SEMIMAJOR_AXIS":"6925.427","CLASSIFICATION_TYPE":"U","MEAN_MOTION_DDOT":"0.0000000000000","APOAPSIS":"548.217","OBJECT_TYPE":"PAYLOAD","GP_ID":"226182779","NORAD_CAT_ID":"48404","MEAN_ELEMENT_THEORY":"SGP4","REV_AT_EPOCH":"10018","EPHEMERIS_TYPE":"0","ELEMENT_SET_NO":"999","ECCENTRICITY":"0.00013350","EPOCH":"2023-02-20T23:06:19.662912","ARG_OF_PERICENTER":"83.9681","DECAY_DATE":null,"RA_OF_ASC_NODE":"296.8483","TLE_LINE2":"2 48404  53.0526 296.8483 0001335  83.9681 276.1460 15.06374251100180","RCS_SIZE":"LARGE","INCLINATION":"53.0526","PERIAPSIS":"546.368","TIME_SYSTEM":"UTC","LAUNCH_DATE":"2021-05-04","CENTER_NAME":"EARTH","TLE_LINE1":"1 48404U 21038BD  23051.96272758  .00014883  00000-0  10166-2 0  9991"},{"DECAY_DATE":null,"ARG_OF_PERICENTER":"84.7828","TLE_LINE2":"2 48405  53.0549 296.8591 0000972  84.7828 275.3272 15.06396662100186","RA_OF_ASC_NODE":"296.8591","PERIAPSIS":"546.551","INCLINATION":"53.0549","RCS_SIZE":"LARGE","TLE_LINE1":"1 48405U 21038BE  23051.95906017  .00018036  00000-0  12267-2 0  9991","CENTER_NAME":"EARTH","LAUNCH_DATE":"2021-05-04","TIME_SYSTEM":"UTC","OBJECT_TYPE":"PAYLOAD","GP_ID":"226182306","MEAN_ELEMENT_THEORY":"SGP4","NORAD_CAT_ID":"48405","ELEMENT_SET_NO":"999","EPHEMERIS_TYPE":"0","REV_AT_EPOCH":"10018","EPOCH":"2023-02-20T23:01:02.798688","ECCENTRICITY":"0.00009720","SITE":"AFETR","COUNTRY_CODE":"US","PERIOD":"95.592","MEAN_MOTION_DOT":"0.00018036","APOAPSIS":"547.897","MEAN_MOTION_DDOT":"0.0000000000000","CLASSIFICATION_TYPE":"U","SEMIMAJOR_AXIS":"6925.359","MEAN_MOTION":"15.06396662","FILE":"3816826","REF_FRAME":"TEME","BSTAR":"0.00122670000000","MEAN_ANOMALY":"275.3272","OBJECT_ID":"2021-038BE","OBJECT_NAME":"STARLINK-2570"},{"EPOCH":"2023-02-20T14:00:01.000224","ECCENTRICITY":"0.00012820","ELEMENT_SET_NO":"999","EPHEMERIS_TYPE":"0","REV_AT_EPOCH":"130","NORAD_CAT_ID":"48406","MEAN_ELEMENT_THEORY":"SGP4","OBJECT_TYPE":"PAYLOAD","GP_ID":"226156137","TLE_LINE1":"1 48406U 21038BF  23051.58334491  .00056131  00000-0  37650-2 0  9993","CENTER_NAME":"EARTH","LAUNCH_DATE":"2021-05-04","TIME_SYSTEM":"UTC","PERIAPSIS":"546.557","INCLINATION":"53.0523","RCS_SIZE":"LARGE","TLE_LINE2":"2 48406  53.0523 298.5490 0001282  80.2048  61.4618 15.06324498  1306","RA_OF_ASC_NODE":"298.5490","DECAY_DATE":null,"ARG_OF_PERICENTER":"80.2048","OBJECT_NAME":"STARLINK-2568","BSTAR":"0.00376500000000","MEAN_ANOMALY":"61.4618","OBJECT_ID":"2021-038BF","FILE":"3815761","REF_FRAME":"TEME","MEAN_MOTION":"15.06324498","APOAPSIS":"548.333","CLASSIFICATION_TYPE":"U","MEAN_MOTION_DDOT":"0.0000000000000","SEMIMAJOR_AXIS":"6925.580","SITE":"AFETR","COUNTRY_CODE":"US","PERIOD":"95.597","MEAN_MOTION_DOT":"0.00056131"},{"APOAPSIS":"547.812","SEMIMAJOR_AXIS":"6925.381","MEAN_MOTION_DDOT":"0.0000000000000","CLASSIFICATION_TYPE":"U","SITE":"AFETR","COUNTRY_CODE":"US","PERIOD":"95.593","MEAN_MOTION_DOT":"0.00022182","OBJECT_NAME":"STARLINK-2595","BSTAR":"0.00150380000000","OBJECT_ID":"2021-038BG","MEAN_ANOMALY":"282.7074","REF_FRAME":"TEME","FILE":"3816830","MEAN_MOTION":"15.06389356","TLE_LINE1":"1 48407U 21038BG  23051.95168519  .00022182  00000-0  15038-2 0  9996","TIME_SYSTEM":"UTC","CENTER_NAME":"EARTH","LAUNCH_DATE":"2021-05-04","RCS_SIZE":"LARGE","INCLINATION":"53.0523","PERIAPSIS":"546.680","TLE_LINE2":"2 48407  53.0523 296.8979 0000817  77.4006 282.7074 15.06389356100178","RA_OF_ASC_NODE":"296.8979","DECAY_DATE":null,"ARG_OF_PERICENTER":"77.4006","ECCENTRICITY":"0.00008170","EPOCH":"2023-02-20T22:50:25.600416","EPHEMERIS_TYPE":"0","ELEMENT_SET_NO":"999","REV_AT_EPOCH":"10017","MEAN_ELEMENT_THEORY":"SGP4","NORAD_CAT_ID":"48407","GP_ID":"226182336","OBJECT_TYPE":"PAYLOAD"},{"MEAN_ANOMALY":"274.0172","OBJECT_ID":"2021-038BH","BSTAR":"-0.00021847000000","OBJECT_NAME":"STARLINK-2592","MEAN_MOTION":"15.06396306","FILE":"3816830","REF_FRAME":"TEME","CLASSIFICATION_TYPE":"U","MEAN_MOTION_DDOT":"0.0000000000000","SEMIMAJOR_AXIS":"6925.360","APOAPSIS":"548.247","PERIOD":"95.592","MEAN_MOTION_DOT":"-0.00003534","COUNTRY_CODE":"US","SITE":"AFETR","REV_AT_EPOCH":"10017","ELEMENT_SET_NO":"999","EPHEMERIS_TYPE":"0","EPOCH":"2023-02-20T22:45:07.049664","ECCENTRICITY":"0.00014760","OBJECT_TYPE":"PAYLOAD","GP_ID":"226182835","NORAD_CAT_ID":"48408","MEAN_ELEMENT_THEORY":"SGP4","PERIAPSIS":"546.203","INCLINATION":"53.0519","RCS_SIZE":"LARGE","CENTER_NAME":"EARTH","LAUNCH_DATE":"2021-05-04","TIME_SYSTEM":"UTC","TLE_LINE1":"1 48408U 21038BH  23051.94799826 -.00003534  00000-0 -21847-3 0  9995","ARG_OF_PERICENTER":"86.0986","DECAY_DATE":null,"RA_OF_ASC_NODE":"296.9171","TLE_LINE2":"2 48408  53.0519 296.9171 0001476  86.0986 274.0172 15.06396306100170"},{"MEAN_ELEMENT_THEORY":"SGP4","NORAD_CAT_ID":"48409","GP_ID":"226182844","OBJECT_TYPE":"PAYLOAD","ECCENTRICITY":"0.00004630","EPOCH":"2023-02-20T23:18:55.160064","EPHEMERIS_TYPE":"0","ELEMENT_SET_NO":"999","REV_AT_EPOCH":"10011","TLE_LINE2":"2 48409  53.0534 301.8076 0000463  91.3133 268.7909 15.06367182100118","RA_OF_ASC_NODE":"301.8076","DECAY_DATE":null,"ARG_OF_PERICENTER":"91.3133","TLE_LINE1":"1 48409U 21038BJ  23051.97147176  .00021920  00000-0  14872-2 0  9990","TIME_SYSTEM":"UTC","LAUNCH_DATE":"2021-05-04","CENTER_NAME":"EARTH","RCS_SIZE":"LARGE","INCLINATION":"53.0534","PERIAPSIS":"546.993","REF_FRAME":"TEME","FILE":"3816831","MEAN_MOTION":"15.06367182","OBJECT_NAME":"STARLINK-2596","BSTAR":"0.00148720000000","MEAN_ANOMALY":"268.7909","OBJECT_ID":"2021-038BJ","SITE":"AFETR","COUNTRY_CODE":"US","MEAN_MOTION_DOT":"0.00021920","PERIOD":"95.594","APOAPSIS":"547.635","SEMIMAJOR_AXIS":"6925.449","MEAN_MOTION_DDOT":"0.0000000000000","CLASSIFICATION_TYPE":"U"},{"APOAPSIS":"548.149","MEAN_MOTION_DDOT":"0.0000000000000","CLASSIFICATION_TYPE":"U","SEMIMAJOR_AXIS":"6925.361","SITE":"AFETR","COUNTRY_CODE":"US","MEAN_MOTION_DOT":"0.00006930","PERIOD":"95.592","BSTAR":"0.00048373000000","OBJECT_ID":"2021-038BK","MEAN_ANOMALY":"259.1997","OBJECT_NAME":"STARLINK-2563","MEAN_MOTION":"15.06396070","FILE":"3815761","REF_FRAME":"TEME","PERIAPSIS":"546.302","INCLINATION":"53.0496","RCS_SIZE":"LARGE","TLE_LINE1":"1 48410U 21038BK  23051.57803561  .00006930  00000-0  48373-3 0  9993","LAUNCH_DATE":"2021-05-04","CENTER_NAME":"EARTH","TIME_SYSTEM":"UTC","DECAY_DATE":null,"ARG_OF_PERICENTER":"100.9142","TLE_LINE2":"2 48410  53.0496 253.5727 0001334 100.9142 259.1997 15.06396070100173","RA_OF_ASC_NODE":"253.5727","ELEMENT_SET_NO":"999","EPHEMERIS_TYPE":"0","REV_AT_EPOCH":"10017","EPOCH":"2023-02-20T13:52:22.276704","ECCENTRICITY":"0.00013340","GP_ID":"226155637","OBJECT_TYPE":"PAYLOAD","MEAN_ELEMENT_THEORY":"SGP4","NORAD_CAT_ID":"48410"},{"ARG_OF_PERICENTER":"90.1635","DECAY_DATE":null,"RA_OF_ASC_NODE":"247.0070","TLE_LINE2":"2 48411  53.0514 247.0070 0000955  90.1635 269.9464 15.06429872100860","RCS_SIZE":"LARGE","INCLINATION":"53.0514","PERIAPSIS":"546.461","TIME_SYSTEM":"UTC","CENTER_NAME":"EARTH","LAUNCH_DATE":"2021-05-04","TLE_LINE1":"1 48411U 21038BL  23051.92677656  .00007832  00000-0  54366-3 0  9998","GP_ID":"226182369","OBJECT_TYPE":"PAYLOAD","NORAD_CAT_ID":"48411","MEAN_ELEMENT_THEORY":"SGP4","REV_AT_EPOCH":"10086","EPHEMERIS_TYPE":"0","ELEMENT_SET_NO":"999","ECCENTRICITY":"0.00009550","EPOCH":"2023-02-20T22:14:33.494784","MEAN_MOTION_DOT":"0.00007832","PERIOD":"95.590","COUNTRY_CODE":"US","SITE":"AFETR","SEMIMAJOR_AXIS":"6925.257","CLASSIFICATION_TYPE":"U","MEAN_MOTION_DDOT":"0.0000000000000","APOAPSIS":"547.783","MEAN_MOTION":"15.06429872","REF_FRAME":"TEME","FILE":"3816833","OBJECT_ID":"2021-038BL","MEAN_ANOMALY":"269.9464","BSTAR":"0.00054366000000","OBJECT_NAME":"STARLINK-2505"},{"DECAY_DATE":null,"ARG_OF_PERICENTER":"92.3794","TLE_LINE2":"2 48412  53.0496 247.3593 0001306  92.3794 267.7344 15.06403578100862","RA_OF_ASC_NODE":"247.3593","PERIAPSIS":"546.298","INCLINATION":"53.0496","RCS_SIZE":"LARGE","TLE_LINE1":"1 48412U 21038BM  23051.94528646  .00002352  00000-0  17671-3 0  9995","LAUNCH_DATE":"2021-05-04","CENTER_NAME":"EARTH","TIME_SYSTEM":"UTC","OBJECT_TYPE":"PAYLOAD","GP_ID":"226190782","NORAD_CAT_ID":"48412","MEAN_ELEMENT_THEORY":"SGP4","ELEMENT_SET_NO":"999","EPHEMERIS_TYPE":"0","REV_AT_EPOCH":"10086","EPOCH":"2023-02-20T22:41:12.750144","ECCENTRICITY":"0.00013060","SITE":"AFETR","COUNTRY_CODE":"US","PERIOD":"95.592","MEAN_MOTION_DOT":"0.00002352","APOAPSIS":"548.107","MEAN_MOTION_DDOT":"0.0000000000000","CLASSIFICATION_TYPE":"U","SEMIMAJOR_AXIS":"6925.338","MEAN_MOTION":"15.06403578","FILE":"3817178","REF_FRAME":"TEME","BSTAR":"0.00017671000000","MEAN_ANOMALY":"267.7344","OBJECT_ID":"2021-038BM","OBJECT_NAME":"STARLINK-2581"}];
